{"fetched_at":"2026-07-16T17:46:34.847Z","source":"https://celestrak.org/NORAD/elements/gp.php?NAME=HULIANWANG&FORMAT=JSON","constellation":"guowang","records":[{"OBJECT_NAME":"HULIANWANG DIGUI-60","OBJECT_ID":"2025-174C","EPOCH":"2026-07-16T07:00:44.192160","CLASSIFICATION_TYPE":"U","MEAN_MOTION":13.24407023,"ECCENTRICITY":0.00018457,"INCLINATION":86.4938,"RA_OF_ASC_NODE":242.1731,"ARG_OF_PERICENTER":102.3713,"MEAN_ANOMALY":257.7628,"EPHEMERIS_TYPE":0,"NORAD_CAT_ID":65166,"ELEMENT_SET_NO":999,"REV_AT_EPOCH":4464,"BSTAR":0.000099133795,"MEAN_MOTION_DOT":5.7e-7,"MEAN_MOTION_DDOT":0},{"OBJECT_NAME":"HULIANWANG DIGUI-61","OBJECT_ID":"2025-174D","EPOCH":"2026-07-16T07:11:38.509728","CLASSIFICATION_TYPE":"U","MEAN_MOTION":13.24407666,"ECCENTRICITY":0.0001667,"INCLINATION":86.4946,"RA_OF_ASC_NODE":242.204,"ARG_OF_PERICENTER":100.7527,"MEAN_ANOMALY":259.3795,"EPHEMERIS_TYPE":0,"NORAD_CAT_ID":65167,"ELEMENT_SET_NO":999,"REV_AT_EPOCH":4464,"BSTAR":0.00011974279,"MEAN_MOTION_DOT":6.6e-7,"MEAN_MOTION_DDOT":0},{"OBJECT_NAME":"HULIANWANG DIGUI-62","OBJECT_ID":"2025-174E","EPOCH":"2026-07-16T07:22:20.992224","CLASSIFICATION_TYPE":"U","MEAN_MOTION":13.24409265,"ECCENTRICITY":0.00017495,"INCLINATION":86.4888,"RA_OF_ASC_NODE":242.0159,"ARG_OF_PERICENTER":104.9274,"MEAN_ANOMALY":255.2053,"EPHEMERIS_TYPE":0,"NORAD_CAT_ID":65168,"ELEMENT_SET_NO":999,"REV_AT_EPOCH":4464,"BSTAR":0.00012509806,"MEAN_MOTION_DOT":6.8e-7,"MEAN_MOTION_DDOT":0},{"OBJECT_NAME":"HULIANWANG DIGUI-63","OBJECT_ID":"2025-174F","EPOCH":"2026-07-16T05:44:20.284224","CLASSIFICATION_TYPE":"U","MEAN_MOTION":13.2440355,"ECCENTRICITY":0.00016431,"INCLINATION":86.4941,"RA_OF_ASC_NODE":242.2157,"ARG_OF_PERICENTER":104.6568,"MEAN_ANOMALY":255.4749,"EPHEMERIS_TYPE":0,"NORAD_CAT_ID":65169,"ELEMENT_SET_NO":999,"REV_AT_EPOCH":4463,"BSTAR":0.000094876161,"MEAN_MOTION_DOT":5.5e-7,"MEAN_MOTION_DDOT":0},{"OBJECT_NAME":"HULIANWANG DIGUI-64","OBJECT_ID":"2025-174G","EPOCH":"2026-07-16T05:55:26.733216","CLASSIFICATION_TYPE":"U","MEAN_MOTION":13.24407504,"ECCENTRICITY":0.00018139,"INCLINATION":86.49,"RA_OF_ASC_NODE":242.0858,"ARG_OF_PERICENTER":104.1782,"MEAN_ANOMALY":255.9554,"EPHEMERIS_TYPE":0,"NORAD_CAT_ID":65170,"ELEMENT_SET_NO":999,"REV_AT_EPOCH":4463,"BSTAR":0.000057674614,"MEAN_MOTION_DOT":3.9e-7,"MEAN_MOTION_DDOT":0},{"OBJECT_NAME":"HULIANWANG DIGUI-65","OBJECT_ID":"2025-174H","EPOCH":"2026-07-16T06:17:07.774656","CLASSIFICATION_TYPE":"U","MEAN_MOTION":13.2440752,"ECCENTRICITY":0.00017119,"INCLINATION":86.4863,"RA_OF_ASC_NODE":241.9734,"ARG_OF_PERICENTER":99.5086,"MEAN_ANOMALY":260.6242,"EPHEMERIS_TYPE":0,"NORAD_CAT_ID":65171,"ELEMENT_SET_NO":999,"REV_AT_EPOCH":4463,"BSTAR":0.000018438677,"MEAN_MOTION_DOT":2.3e-7,"MEAN_MOTION_DDOT":0},{"OBJECT_NAME":"HULIANWANG DIGUI-66","OBJECT_ID":"2025-174J","EPOCH":"2026-07-16T06:06:18.732672","CLASSIFICATION_TYPE":"U","MEAN_MOTION":13.24407175,"ECCENTRICITY":0.00018376,"INCLINATION":86.4899,"RA_OF_ASC_NODE":242.0871,"ARG_OF_PERICENTER":102.4118,"MEAN_ANOMALY":257.7222,"EPHEMERIS_TYPE":0,"NORAD_CAT_ID":65172,"ELEMENT_SET_NO":999,"REV_AT_EPOCH":4463,"BSTAR":0.000023809383,"MEAN_MOTION_DOT":2.5e-7,"MEAN_MOTION_DDOT":0},{"OBJECT_NAME":"HULIANWANG DIGUI-67","OBJECT_ID":"2025-174K","EPOCH":"2026-07-16T06:28:01.256736","CLASSIFICATION_TYPE":"U","MEAN_MOTION":13.24408696,"ECCENTRICITY":0.00018139,"INCLINATION":86.491,"RA_OF_ASC_NODE":242.1305,"ARG_OF_PERICENTER":100.7336,"MEAN_ANOMALY":259.4003,"EPHEMERIS_TYPE":0,"NORAD_CAT_ID":65173,"ELEMENT_SET_NO":999,"REV_AT_EPOCH":4460,"BSTAR":0.000023859391,"MEAN_MOTION_DOT":2.5e-7,"MEAN_MOTION_DDOT":0},{"OBJECT_NAME":"HULIANWANG DIGUI-68","OBJECT_ID":"2025-178A","EPOCH":"2026-07-16T07:00:29.105856","CLASSIFICATION_TYPE":"U","MEAN_MOTION":13.24411276,"ECCENTRICITY":0.00020024,"INCLINATION":86.4989,"RA_OF_ASC_NODE":3.6978,"ARG_OF_PERICENTER":91.5268,"MEAN_ANOMALY":268.6096,"EPHEMERIS_TYPE":0,"NORAD_CAT_ID":65228,"ELEMENT_SET_NO":999,"REV_AT_EPOCH":4416,"BSTAR":-0.000051247651,"MEAN_MOTION_DOT":-7e-8,"MEAN_MOTION_DDOT":0},{"OBJECT_NAME":"HULIANWANG DIGUI-69","OBJECT_ID":"2025-178B","EPOCH":"2026-07-16T06:49:45.941664","CLASSIFICATION_TYPE":"U","MEAN_MOTION":13.24412627,"ECCENTRICITY":0.00018373,"INCLINATION":86.5004,"RA_OF_ASC_NODE":3.7612,"ARG_OF_PERICENTER":91.7741,"MEAN_ANOMALY":268.3604,"EPHEMERIS_TYPE":0,"NORAD_CAT_ID":65229,"ELEMENT_SET_NO":999,"REV_AT_EPOCH":4416,"BSTAR":-0.000005012739,"MEAN_MOTION_DOT":1.2e-7,"MEAN_MOTION_DDOT":0},{"OBJECT_NAME":"HULIANWANG DIGUI-70","OBJECT_ID":"2025-178C","EPOCH":"2026-07-16T06:38:52.640160","CLASSIFICATION_TYPE":"U","MEAN_MOTION":13.24411742,"ECCENTRICITY":0.00019269,"INCLINATION":86.4943,"RA_OF_ASC_NODE":3.5541,"ARG_OF_PERICENTER":89.6381,"MEAN_ANOMALY":270.4973,"EPHEMERIS_TYPE":0,"NORAD_CAT_ID":65230,"ELEMENT_SET_NO":999,"REV_AT_EPOCH":4416,"BSTAR":-0.000007515546,"MEAN_MOTION_DOT":1.1e-7,"MEAN_MOTION_DDOT":0},{"OBJECT_NAME":"HULIANWANG DIGUI-71","OBJECT_ID":"2025-178D","EPOCH":"2026-07-16T06:28:01.342272","CLASSIFICATION_TYPE":"U","MEAN_MOTION":13.24411518,"ECCENTRICITY":0.00019793,"INCLINATION":86.5007,"RA_OF_ASC_NODE":3.7458,"ARG_OF_PERICENTER":90.7112,"MEAN_ANOMALY":269.4249,"EPHEMERIS_TYPE":0,"NORAD_CAT_ID":65231,"ELEMENT_SET_NO":999,"REV_AT_EPOCH":4416,"BSTAR":0.000024892648,"MEAN_MOTION_DOT":2.5e-7,"MEAN_MOTION_DDOT":0},{"OBJECT_NAME":"HULIANWANG DIGUI-72","OBJECT_ID":"2025-178E","EPOCH":"2026-07-16T06:17:08.700000","CLASSIFICATION_TYPE":"U","MEAN_MOTION":13.24410979,"ECCENTRICITY":0.00019859,"INCLINATION":86.499,"RA_OF_ASC_NODE":3.6847,"ARG_OF_PERICENTER":90.8662,"MEAN_ANOMALY":269.2699,"EPHEMERIS_TYPE":0,"NORAD_CAT_ID":65232,"ELEMENT_SET_NO":999,"REV_AT_EPOCH":4416,"BSTAR":0.000039061953,"MEAN_MOTION_DOT":3.1e-7,"MEAN_MOTION_DDOT":0},{"OBJECT_NAME":"HULIANWANG DIGUI-73","OBJECT_ID":"2025-187A","EPOCH":"2026-07-16T05:33:48.566304","CLASSIFICATION_TYPE":"U","MEAN_MOTION":13.29323554,"ECCENTRICITY":0.00001096,"INCLINATION":50.0051,"RA_OF_ASC_NODE":101.713,"ARG_OF_PERICENTER":318.368,"MEAN_ANOMALY":41.7184,"EPHEMERIS_TYPE":0,"NORAD_CAT_ID":65305,"ELEMENT_SET_NO":999,"REV_AT_EPOCH":4356,"BSTAR":0.000058971559,"MEAN_MOTION_DOT":-9.7e-7,"MEAN_MOTION_DDOT":0},{"OBJECT_NAME":"HULIANWANG DIGUI-74","OBJECT_ID":"2025-187B","EPOCH":"2026-07-16T06:58:08.584896","CLASSIFICATION_TYPE":"U","MEAN_MOTION":13.29321603,"ECCENTRICITY":0.00001134,"INCLINATION":50.0094,"RA_OF_ASC_NODE":101.4651,"ARG_OF_PERICENTER":309.3948,"MEAN_ANOMALY":50.6915,"EPHEMERIS_TYPE":0,"NORAD_CAT_ID":65306,"ELEMENT_SET_NO":999,"REV_AT_EPOCH":4357,"BSTAR":0.000043198619,"MEAN_MOTION_DOT":-0.00000104,"MEAN_MOTION_DDOT":0},{"OBJECT_NAME":"HULIANWANG DIGUI-75","OBJECT_ID":"2025-187C","EPOCH":"2026-07-16T06:34:06.543840","CLASSIFICATION_TYPE":"U","MEAN_MOTION":13.29322765,"ECCENTRICITY":0.00001149,"INCLINATION":50.0086,"RA_OF_ASC_NODE":101.3587,"ARG_OF_PERICENTER":322.4863,"MEAN_ANOMALY":37.6001,"EPHEMERIS_TYPE":0,"NORAD_CAT_ID":65307,"ELEMENT_SET_NO":999,"REV_AT_EPOCH":4357,"BSTAR":0.000037947404,"MEAN_MOTION_DOT":-0.00000106,"MEAN_MOTION_DDOT":0}]}
