HULIANWANG DIGUI-60     
1 65166U 25174C   26197.29217815  .00000057  00000+0  99134-4 0  9994
2 65166  86.4938 242.1731 0001845 102.3713 257.7628 13.24407023 44640
HULIANWANG DIGUI-61     
1 65167U 25174D   26197.29975127  .00000066  00000+0  11974-3 0  9997
2 65167  86.4946 242.2040 0001667 100.7527 259.3795 13.24407666 44647
HULIANWANG DIGUI-62     
1 65168U 25174E   26197.30718741  .00000068  00000+0  12510-3 0  9996
2 65168  86.4888 242.0159 0001749 104.9274 255.2053 13.24409265 44647
HULIANWANG DIGUI-63     
1 65169U 25174F   26197.23912366  .00000055  00000+0  94876-4 0  9990
2 65169  86.4941 242.2157 0001643 104.6568 255.4749 13.24403550 44638
HULIANWANG DIGUI-64     
1 65170U 25174G   26197.24683719  .00000039  00000+0  57675-4 0  9998
2 65170  86.4900 242.0858 0001813 104.1782 255.9554 13.24407504 44635
HULIANWANG DIGUI-65     
1 65171U 25174H   26197.26189554  .00000023  00000+0  18439-4 0  9997
2 65171  86.4863 241.9734 0001711  99.5086 260.6242 13.24407520 44631
HULIANWANG DIGUI-66     
1 65172U 25174J   26197.25438348  .00000025  00000+0  23809-4 0  9994
2 65172  86.4899 242.0871 0001837 102.4118 257.7222 13.24407175 44635
HULIANWANG DIGUI-67     
1 65173U 25174K   26197.26945899  .00000025  00000+0  23859-4 0  9995
2 65173  86.4910 242.1305 0001813 100.7336 259.4003 13.24408696 44602
HULIANWANG DIGUI-68     
1 65228U 25178A   26197.29200354 -.00000007  00000+0 -51248-4 0  9998
2 65228  86.4989   3.6978 0002002  91.5268 268.6096 13.24411276 44160
HULIANWANG DIGUI-69     
1 65229U 25178B   26197.28455951  .00000012  00000+0 -50127-5 0  9994
2 65229  86.5004   3.7612 0001837  91.7741 268.3604 13.24412627 44162
HULIANWANG DIGUI-70     
1 65230U 25178C   26197.27699815  .00000011  00000+0 -75155-5 0  9991
2 65230  86.4943   3.5541 0001926  89.6381 270.4973 13.24411742 44169
HULIANWANG DIGUI-71     
1 65231U 25178D   26197.26945998  .00000025  00000+0  24893-4 0  9993
2 65231  86.5007   3.7458 0001979  90.7112 269.4249 13.24411518 44169
HULIANWANG DIGUI-72     
1 65232U 25178E   26197.26190625  .00000031  00000+0  39062-4 0  9994
2 65232  86.4990   3.6847 0001985  90.8662 269.2699 13.24410979 44166
HULIANWANG DIGUI-73     
1 65305U 25187A   26197.23181211 -.00000097  00000+0  58972-4 0  9997
2 65305  50.0051 101.7130 0000109 318.3680  41.7184 13.29323554 43564
HULIANWANG DIGUI-74     
1 65306U 25187B   26197.29037714 -.00000104  00000+0  43199-4 0  9996
2 65306  50.0094 101.4651 0000113 309.3948  50.6915 13.29321603 43574
HULIANWANG DIGUI-75     
1 65307U 25187C   26197.27368685 -.00000106  00000+0  37947-4 0  9995
2 65307  50.0086 101.3587 0000114 322.4863  37.6001 13.29322765 43577
